OBJECT_NAME,OBJECT_ID,EPOCH,MEAN_MOTION,ECCENTRICITY,INCLINATION,RA_OF_ASC_NODE,ARG_OF_PERICENTER,MEAN_ANOMALY,EPHEMERIS_TYPE,CLASSIFICATION_TYPE,NORAD_CAT_ID,ELEMENT_SET_NO,REV_AT_EPOCH,BSTAR,MEAN_MOTION_DOT,MEAN_MOTION_DDOT
STARLINK-3602,2022-017Z,2026-06-07T03:26:29.462784,15.08796446,.00014,53.1721,307.5064,121.0325,239.0804,0,U,51791,999,23742,.48992E-3,.7509E-4,0
STARLINK-3626,2022-017AA,2026-06-07T02:59:58.971840,15.08830854,.0001342,53.1733,307.5960,90.8395,269.2750,0,U,51792,999,23747,-.12933E-3,-.2345E-4,0
STARLINK-3633,2022-017AB,2026-06-07T12:21:54.351360,16.05871995,.0002473,53.2113,263.7366,0.9429,359.1609,0,U,51793,999,23812,.83211E-3,.616128E-2,.19642E-3
STARLINK-3573,2022-017AC,2026-06-07T12:00:04.000320,15.66618694,.0000974,53.2170,294.6398,45.7335,246.9655,0,U,51794,999,592,.39666E-2,.446713E-2,0
STARLINK-3586,2022-017AD,2026-06-07T03:21:12.651264,15.08832489,.0000861,53.1719,307.7251,89.2761,270.8330,0,U,51795,999,23742,-.18252E-4,-.578E-5,0
STARLINK-3634,2022-017AG,2026-06-06T16:55:51.570336,15.08838463,.00013056,53.1763,309.4779,89.4456,270.6685,0,U,51798,999,23740,.561784E-4,.606E-5,0
STARLINK-3637,2022-017AH,2026-06-07T02:44:05.379360,15.08824041,.0001326,53.1729,307.6458,103.6341,256.4799,0,U,51799,999,23742,-.15323E-4,-.532E-5,0
STARLINK-3592,2022-017AK,2026-06-07T02:38:47.498208,15.08823350,.0001612,53.1729,307.6573,102.9254,257.1918,0,U,51801,999,23742,-.15345E-3,-.2728E-4,0
STARLINK-3544,2022-017AM,2026-06-06T16:50:33.759168,15.08836017,.00014407,53.1775,309.4927,92.5419,267.5738,0,U,51803,999,23735,.19663425E-4,.25E-6,0
STARLINK-3601,2022-017AN,2026-06-06T15:33:43.647840,15.08832499,.0000921,53.1732,289.7338,82.9208,277.1888,0,U,51804,999,23758,-.365E-4,-.869E-5,0
STARLINK-3605,2022-017AP,2026-06-07T01:11:21.531264,15.08823518,.0000217,53.1699,288.0082,277.8287,82.2680,0,U,51805,999,23773,.21171E-3,.3082E-4,0
STARLINK-3606,2022-017AR,2026-06-06T15:58:53.144832,15.08853915,.00011507,53.1760,299.6562,115.1584,244.9527,0,U,51807,999,23754,-.81564745E-4,-.1586E-4,0
STARLINK-3609,2022-017AS,2026-06-07T02:45:25.231104,15.08807911,.0001141,53.1727,297.6369,87.4977,272.6145,0,U,51808,999,23746,.29927E-3,.4474E-4,0
STARLINK-3607,2022-017AT,2026-06-07T02:56:00.466368,15.08826294,.0001275,53.1748,297.5629,110.2591,249.8537,0,U,51809,999,23756,.21641E-3,.3157E-4,0
STARLINK-3613,2022-017AU,2026-06-06T13:31:54.659712,15.08829863,.00017554,53.1761,290.3386,57.8991,302.2171,0,U,51810,999,23749,.14954019E-3,.2092E-4,0
STARLINK-3569,2022-017AV,2026-06-07T02:50:42.680256,15.08839685,.0001129,53.1736,297.6185,91.4538,268.6583,0,U,51811,999,23746,-.23791E-4,-.667E-5,0
STARLINK-3610,2022-017AW,2026-06-06T15:54:55.703808,15.08835684,.00010528,53.1715,289.6654,69.6476,290.4629,0,U,51812,999,23751,-.13121594E-3,-.2375E-4,0
STARLINK-3552,2022-017AX,2026-06-06T15:28:25.834080,15.08836021,.0000904,53.1747,289.7808,79.7185,280.3908,0,U,51813,999,23751,-.88548E-5,-.429E-5,0
STARLINK-3599,2022-017AY,2026-06-07T01:16:39.745056,15.08793944,.0001347,53.1706,287.9160,82.9881,277.1263,0,U,51814,999,23757,.9148E-3,.14283E-3,0
STARLINK-3604,2022-017AZ,2026-06-07T01:21:56.591136,15.08827455,.0001245,53.1712,287.8975,83.1491,276.9642,0,U,51815,999,23757,.24113E-4,.96E-6,0
STARLINK-3542,2022-022A,2026-06-07T05:03:11.170080,15.08832517,.0001216,53.1714,337.2074,89.2068,270.9062,0,U,51852,999,23527,.29186E-4,.177E-5,0
STARLINK-3541,2022-022C,2026-06-07T04:56:37.866048,15.18058974,.0001829,53.2108,330.9734,147.2382,212.8728,0,U,51854,999,23662,.95379E-3,.194E-3,0
STARLINK-3545,2022-022D,2026-06-06T19:04:20.206848,15.08844110,.00019871,53.1859,339.0017,102.6835,257.4379,0,U,51855,999,23642,.80594747E-4,.995E-5,0
STARLINK-3568,2022-022E,2026-06-07T04:54:01.208160,15.08799682,.0001855,53.1747,337.2472,97.1279,262.9923,0,U,51856,999,23656,-.20264E-3,-.3508E-4,0
STARLINK-3571,2022-022F,2026-06-07T04:38:04.100928,15.08834077,.00018,53.1699,337.2943,77.7442,282.3751,0,U,51857,999,23653,.6852E-4,.802E-5,0
STARLINK-3563,2022-022G,2026-06-06T19:09:40.017312,15.08835169,.00012961,53.1740,339.0631,89.3762,270.7378,0,U,51858,999,23647,.52562388E-4,.549E-5,0
STARLINK-3560,2022-022H,2026-06-06T16:22:47.776224,15.08834588,.0001536,53.1722,329.5898,132.5598,227.5523,0,U,51859,999,23659,-.18209E-4,-.578E-5,0
STARLINK-3559,2022-022J,2026-06-06T18:07:24.181536,15.08834418,.00014259,53.1847,329.2518,94.4277,265.6878,0,U,51860,999,23656,.5612103E-5,-.199E-5,0
STARLINK-3562,2022-022K,2026-06-07T04:53:55.307040,15.08827808,.00012,53.1743,327.2344,102.0616,258.0510,0,U,51861,999,23654,.23037E-5,-.251E-5,0
STARLINK-3508,2022-022L,2026-06-06T18:02:07.530720,15.08826796,.00002905,53.1862,329.2712,78.5349,281.5675,0,U,51862,999,23661,-.2765632E-4,-.727E-5,0
STARLINK-3555,2022-022M,2026-06-07T04:43:18.689376,15.08823186,.0001159,53.1757,327.2677,91.1482,268.9642,0,U,51863,999,23662,-.39721E-3,-.6601E-4,0
STARLINK-3548,2022-022N,2026-06-07T04:48:36.353664,15.08806638,.000113,53.1714,327.1750,96.1978,263.9142,0,U,51864,999,23667,.38989E-3,.5917E-4,0
STARLINK-3503,2022-022P,2026-06-07T04:32:43.036800,15.08830310,.0001339,53.1745,327.3010,88.0810,272.0335,0,U,51865,999,23662,.48845E-4,.489E-5,0
STARLINK-3553,2022-022Q,2026-06-07T04:28:45.897312,15.08834470,.0001165,53.1769,327.1684,89.4195,270.6930,0,U,51866,999,23662,.51763E-4,.536E-5,0
STARLINK-3590,2022-022R,2026-06-07T04:27:24.594912,15.08837906,.0000858,53.1750,327.3195,96.5192,263.5897,0,U,51867,999,23662,.32558E-4,.23E-5,0
STARLINK-3578,2022-022S,2026-06-07T04:38:01.369824,15.08813500,.0001298,53.1737,327.2853,92.5984,267.5156,0,U,51868,999,23662,.35743E-3,.5401E-4,0
STARLINK-3588,2022-022T,2026-06-06T15:28:25.714848,15.08832227,.0001458,53.1742,329.7498,53.9236,306.1890,0,U,51869,999,23654,.52705E-4,.551E-5,0
STARLINK-3591,2022-022U,2026-06-07T04:22:07.037760,15.08833533,.0001197,53.1760,327.3364,95.8019,264.3109,0,U,51870,999,23667,.37683E-4,.312E-5,0
STARLINK-3567,2022-022V,2026-06-06T21:44:40.787232,15.08839021,.0001266,53.1736,328.5774,92.1969,267.9168,0,U,51871,999,23669,-.26749E-3,-.4543E-4,0
STARLINK-3554,2022-022W,2026-06-07T04:16:49.781280,15.08810651,.0001232,53.1731,327.3550,102.3711,257.7418,0,U,51872,999,23662,.36695E-3,.5552E-4,0
STARLINK-3582,2022-022X,2026-06-07T03:28:14.088000,15.21866313,.0003392,53.2125,316.8828,147.7787,212.3418,0,U,51873,999,23677,.86593E-3,.1967E-3,0
STARLINK-3574,2022-022Y,2026-06-06T15:17:47.688000,15.08880337,.0001029,53.1745,329.7879,100.9624,259.1483,0,U,51874,999,23653,.27111E-3,.4034E-4,0
STARLINK-3585,2022-022Z,2026-06-06T17:56:47.389344,15.08834342,.00010374,53.1750,329.2021,71.8292,288.2813,0,U,51875,999,23656,-.13908772E-4,-.509E-5,0
STARLINK-3583,2022-022AA,2026-06-07T03:55:34.122432,15.08885943,.0001596,53.1731,327.4189,157.0692,203.0371,0,U,51876,999,23662,-.3578E-3,-.5985E-4,0
STARLINK-3556,2022-022AB,2026-06-07T03:30:27.484416,15.08824654,.0001077,53.1726,317.4980,98.2605,261.8509,0,U,51877,999,23675,-.40679E-4,-.935E-5,0
STARLINK-3575,2022-022AC,2026-06-06T18:12:41.514912,15.08846070,.00017117,53.1752,329.2344,84.0944,276.0243,0,U,51878,999,23656,.13204487E-3,.1814E-4,0
STARLINK-3572,2022-022AD,2026-06-07T03:19:51.143232,15.08826316,.0001076,53.1711,317.5305,128.0361,232.0727,0,U,51879,999,23675,-.70124E-4,-.1403E-4,0
STARLINK-3566,2022-022AE,2026-06-07T03:50:13.492032,15.08868666,.000106,53.1777,327.1555,91.2612,268.8501,0,U,51880,999,23662,.28367E-3,.4233E-4,0
STARLINK-3504,2022-022AF,2026-06-07T03:09:14.624064,15.08834974,.0001639,53.1736,317.5636,88.9094,271.2085,0,U,51881,999,23680,-.14477E-5,-.311E-5,0
STARLINK-3570,2022-022AG,2026-06-07T03:26:32.345088,15.08823397,.0001206,53.1726,317.5212,111.5412,248.5708,0,U,51882,999,23680,-.29731E-4,-.761E-5,0
STARLINK-3576,2022-022AH,2026-06-07T03:25:10.646112,15.08831958,.0000643,53.1731,317.6959,114.7205,245.3853,0,U,51883,999,23674,.18733E-4,.1E-6,0
STARLINK-3577,2022-022AJ,2026-06-07T03:14:32.634816,15.08842607,.0000883,53.1697,317.5450,119.4151,240.6929,0,U,51884,999,23683,-.15877E-3,-.2814E-4,0
STARLINK-3584,2022-022AK,2026-06-06T20:31:48.803808,15.08825014,.0000854,53.1741,318.8060,73.9046,286.2040,0,U,51885,999,23670,.72262E-4,.862E-5,0
STARLINK-3565,2022-022AL,2026-06-06T17:31:34.582368,15.08856563,.00016302,53.1841,319.3646,82.9716,277.1461,0,U,51886,999,23669,.13412006E-3,.1848E-4,0
STARLINK-3551,2022-022AM,2026-06-06T17:15:44.778528,15.08834760,.00021067,53.1721,319.4161,74.9999,285.1226,0,U,51887,999,23668,.23897198E-4,.92E-6,0
STARLINK-3536,2022-022AN,2026-06-06T17:26:19.966272,15.08834941,.00011207,53.1775,319.3827,86.8281,273.2839,0,U,51888,999,23669,.29389147E-4,.18E-5,0
STARLINK-3547,2022-022AP,2026-06-07T04:07:32.418336,15.08839900,.0000727,53.1742,317.3813,68.8146,291.2923,0,U,51889,999,23675,-.63445E-4,-.1297E-4,0
STARLINK-3549,2022-022AR,2026-06-07T04:02:14.335008,15.08829113,.0001137,53.1767,317.3962,94.3915,265.7206,0,U,51891,999,23680,-.18691E-4,-.585E-5,0
STARLINK-3587,2022-022AS,2026-06-07T04:12:50.048928,15.08837311,.0001124,53.1740,317.3610,103.1561,256.9556,0,U,51892,999,23675,.39026E-4,.333E-5,0
STARLINK-3579,2022-022AT,2026-06-07T03:48:36.162432,15.09272724,.0000895,53.2165,317.4582,82.3071,277.8023,0,U,51893,999,23681,.79665E-3,.12564E-3,0
STARLINK-3595,2022-022AU,2026-06-07T03:56:51.726912,15.08932699,.000121,53.1755,317.4127,22.3224,337.7820,0,U,51894,999,23681,-.39157E-3,-.653E-4,0
STARLINK-3594,2022-022AV,2026-06-07T03:46:21.421632,15.08841624,.0001639,53.1725,317.4470,95.7319,264.3859,0,U,51895,999,23675,.1818E-3,.2607E-4,0
STARLINK-3593,2022-022AW,2026-06-07T04:18:10.370016,15.08831731,.0001165,53.1753,317.5693,77.6695,282.4427,0,U,51896,999,23680,.43442E-4,.403E-5,0
STARLINK-3598,2022-022AX,2026-06-07T05:16:25.965408,15.08832097,.0001114,53.1696,317.1667,94.1291,265.9828,0,U,51897,999,23676,.31298E-4,.21E-5,0
STARLINK-3597,2022-022AY,2026-06-07T03:35:45.917664,15.08815220,.0001297,53.1728,317.4825,102.1058,258.0079,0,U,51898,999,23680,-.36627E-5,-.346E-5,0
